OBJECT_NAME,OBJECT_ID,EPOCH,MEAN_MOTION,ECCENTRICITY,INCLINATION,RA_OF_ASC_NODE,ARG_OF_PERICENTER,MEAN_ANOMALY,EPHEMERIS_TYPE,CLASSIFICATION_TYPE,NORAD_CAT_ID,ELEMENT_SET_NO,REV_AT_EPOCH,BSTAR,MEAN_MOTION_DOT,MEAN_MOTION_DDOT
DEKART,2020-068H,2026-06-12T20:17:51.193824,15.37255502,.000717,97.8738,172.8049,306.0311,54.0267,0,U,46493,999,31510,.35431E-3,.12856E-3,0
NORBI,2020-068J,2026-06-12T19:51:01.952352,15.48277758,.0004505,97.8622,179.4081,267.0576,93.0157,0,U,46494,999,31553,.46962E-3,.24731E-3,0
SALSAT,2020-068K,2026-06-12T18:18:42.355008,15.29738569,.0008406,97.8846,166.5583,326.8032,33.2678,0,U,46495,999,31468,.2979E-3,.8507E-4,0
ICEYE-X6,2020-068M,2026-06-12T20:50:23.991072,15.04497687,.0008505,98.0964,157.3328,102.8535,257.3640,0,U,46497,999,31258,.2705E-3,.3722E-4,0
NETSAT-4,2020-068U,2026-06-12T00:06:03.672288,15.43693540,.00044978,97.8603,170.8288,1.0103,359.1152,0,U,46504,999,31497,.36610083E-3,.16437E-3,0
NETSAT-3,2020-068V,2026-06-12T06:23:00.305664,15.42511716,.00049268,97.8651,169.3342,19.4008,340.7424,0,U,46505,999,31492,.45347216E-3,.19599E-3,0
NETSAT-1,2020-068W,2026-06-12T05:52:48.035424,15.34529137,.00056209,97.8742,163.7008,46.6964,313.4746,0,U,46506,999,31454,.39944755E-3,.13288E-3,0
NETSAT-2,2020-068X,2026-06-12T19:52:31.171584,15.45817962,.0004028,97.8613,171.5974,39.2536,320.9003,0,U,46507,999,31506,.47897E-3,.23166E-3,0
TIANQI-6,2020-076D,2026-06-12T04:04:44.417856,15.07150656,.00093724,34.9990,79.2547,128.8326,231.3221,0,U,46810,999,30782,.24434355E-3,.3725E-4,0
KSM1-C,2020-081B,2026-06-12T18:40:23.622816,15.26670289,.0002471,36.8944,86.1595,225.1176,134.9373,0,U,46906,999,30849,.3883E-3,.10346E-3,0
KSM1-D,2020-081C,2026-06-12T18:34:25.620096,15.24660909,.0004835,36.8947,95.1099,237.6970,122.3310,0,U,46907,999,30842,.34454E-3,.8625E-4,0
KSM1-A,2020-081H,2026-06-12T18:41:46.362048,15.25894213,.000476,36.8956,88.5155,280.7078,79.3135,0,U,46912,999,30850,.37799E-3,.9835E-4,0
R2,2020-081J,2026-06-12T01:53:27.472416,15.25361113,.00089615,36.8976,92.7830,246.2489,113.7320,0,U,46913,999,31120,.28707405E-3,.7328E-4,0
KSM1-B,2020-081K,2026-06-12T06:03:59.848128,15.24440557,.00068021,36.9006,98.9100,246.6185,113.3848,0,U,46914,999,31143,.28383701E-3,.7041E-4,0
GONETS-M 20,2020-091A,2026-06-12T19:41:05.824320,12.42893808,.002101,82.5037,305.1512,187.3732,172.7042,0,U,47227,999,25053,.46001E-3,.74E-6,0
GONETS-M 21,2020-091B,2026-06-12T20:59:20.649984,12.42886764,.0014548,82.4962,303.8270,200.3531,159.6971,0,U,47228,999,25053,.12253E-3,.27E-6,0
GONETS-M 22,2020-091C,2026-06-12T20:20:37.953600,12.42892670,.0021942,82.5019,304.7404,182.6859,177.4106,0,U,47229,999,25048,-.12031E-3,-.7E-7,0
CUBEL,2021-006AM,2026-06-12T16:21:47.087136,15.41064134,.0005534,97.2362,214.3057,169.3260,190.8106,0,U,47448,999,29906,.2628E-3,.10784E-3,0
ARKTIKA-M 1,2021-016A,2026-06-09T12:22:37.726752,2.00625436,.7285674,63.2417,58.7595,269.8905,14.6803,0,U,47719,999,3863,0,-.149E-5,0
STARLINK-2342,2021-021Z,2026-06-12T20:00:01.999008,15.79829925,.0001539,53.1542,169.8849,86.6000,31.8832,0,U,47883,999,582,.89591E-3,.171273E-2,0
GRUS-1B,2021-022C,2026-06-12T20:06:22.393152,14.98894039,.0015704,97.5421,47.1796,344.1346,15.9384,0,U,47934,999,28524,.13041E-3,.1522E-4,0
2021-022F,2021-022F,2026-06-12T21:02:42.412128,15.32982102,.0011701,97.3906,64.5779,105.4367,254.8169,0,U,47937,999,28905,.28049E-3,.8877E-4,0
UNISAT-7,2021-022P,2026-06-12T06:53:54.446208,15.40338786,.00112261,97.3901,68.1614,92.8770,267.3762,0,U,47945,999,28910,.38268129E-3,.15399E-3,0
2021-022X,2021-022X,2026-06-12T04:04:16.402656,15.73569238,.00075159,97.3914,79.8816,89.1239,271.0886,0,U,47953,999,28971,.74789426E-3,.105381E-2,0
GLOBAL-9,2021-023G,2026-06-12T19:07:05.165184,15.46443914,.0005043,44.9817,275.2030,296.0447,63.9924,0,U,47971,999,29426,.42196E-3,.21076E-3,0
AII-BRAVO,2021-034C,2026-06-12T02:18:37.035936,15.03441317,.00045712,97.5630,218.1215,282.8412,77.2302,0,U,48270,999,27885,.307334E-3,.4125E-4,0
TYVAK-182A,2021-034D,2026-06-12T03:33:26.021376,15.06123800,.00055301,97.5733,222.1531,6.6631,353.4669,0,U,48271,999,27907,.27813439E-3,.4007E-4,0
CSS (TIANHE),2021-035A,2026-06-12T19:37:30.079200,15.60618766,.0007968,41.4694,348.5894,41.6006,318.5438,0,U,48274,999,29248,.26094E-3,.21976E-3,0
TYVAK-0130,2021-041BF,2026-06-12T20:35:24.631008,15.27513407,.0010587,52.9974,46.1909,148.7681,211.3947,0,U,48606,999,27972,.25507E-3,.662E-4,0
HAIYANG-2D,2021-043A,2026-06-12T19:26:41.593632,13.83375408,.0011401,65.9993,315.5971,269.5621,90.4141,0,U,48621,999,25594,-.4565E-4,-.132E-5,0
2021-050D,2021-050D,2026-06-12T20:51:05.124384,15.23289127,.0003981,97.3343,240.0028,285.0682,75.0114,0,U,48843,999,27830,.2488E-3,.5832E-4,0
