{"_default": { "161": {"norad_id": "46495", "name": "SALSAT", "tle1": "1 46495U 20068K   26163.76299022  .00008507  00000-0  29790-3 0  9999", "tle2": "2 46495  97.8846 166.5583 0008406 326.8032  33.2678 15.29738569314684", "object_type": "PAYLOAD", "criticality_score": 9.0, "last_updated": "2026-06-13T11:16:06.819600+00:00", "maneuver_count": 0, "owner": "GER"}, "162": {"norad_id": "46506", "name": "NETSAT-1", "tle1": "1 46506U 20068W   26163.24500041  .00013288  00000-0  39945-3 0  9996", "tle2": "2 46506  97.8742 163.7008 0005621  46.6964 313.4746 15.34529137314549", "object_type": "PAYLOAD", "criticality_score": 9.0, "last_updated": "2026-06-13T11:16:06.819600+00:00", "maneuver_count": 0, "owner": "GER"}, "163": {"norad_id": "46507", "name": "NETSAT-2", "tle1": "1 46507U 20068X   26163.82813856  .00023166  00000-0  47897-3 0  9993", "tle2": "2 46507  97.8613 171.5974 0004028  39.2536 320.9003 15.45817962315064", "object_type": "PAYLOAD", "criticality_score": 9.0, "last_updated": "2026-06-13T11:16:06.819600+00:00", "maneuver_count": 0, "owner": "GER"}, "164": {"norad_id": "46505", "name": "NETSAT-3", "tle1": "1 46505U 20068V   26163.26597576  .00019599  00000-0  45347-3 0  9990", "tle2": "2 46505  97.8651 169.3342 0004927  19.4008 340.7424 15.42511716314926", "object_type": "PAYLOAD", "criticality_score": 9.0, "last_updated": "2026-06-13T11:16:06.819600+00:00", "maneuver_count": 0, "owner": "GER"}, "165": {"norad_id": "46504", "name": "NETSAT-4", "tle1": "1 46504U 20068U   26163.00420917  .00016437  00000-0  36610-3 0  9996", "tle2": "2 46504  97.8603 170.8288 0004498   1.0103 359.1152 15.43693540314978", "object_type": "PAYLOAD", "criticality_score": 9.0, "last_updated": "2026-06-13T11:16:06.819600+00:00", "maneuver_count": 0, "owner": "GER"}, "166": {"norad_id": "46493", "name": "DEKART", "tle1": "1 46493U 20068H   26163.84573141  .00012856  00000-0  35431-3 0  9994", "tle2": "2 46493  97.8738 172.8049 0007170 306.0311  54.0267 15.37255502315109", "object_type": "PAYLOAD", "criticality_score": 9.0, "last_updated": "2026-06-13T11:16:06.819600+00:00", "maneuver_count": 0, "owner": "CIS"}, "167": {"norad_id": "46494", "name": "NORBI", "tle1": "1 46494U 20068J   26163.82710593  .00024731  00000-0  46962-3 0  9993", "tle2": "2 46494  97.8622 179.4081 0004505 267.0576  93.0157 15.48277758315536", "object_type": "PAYLOAD", "criticality_score": 9.0, "last_updated": "2026-06-13T11:16:06.819600+00:00", "maneuver_count": 0, "owner": "CIS"}, "203": {"norad_id": "47448", "name": "CUBEL", "tle1": "1 47448U 21006AM  26163.68179499  .00010784  00000-0  26280-3 0  9998", "tle2": "2 47448  97.2362 214.3057 0005534 169.3260 190.8106 15.41064134299064", "object_type": "PAYLOAD", "criticality_score": 9.0, "last_updated": "2026-06-13T11:16:06.819600+00:00", "maneuver_count": 0, "owner": "GER"}, "205": {"norad_id": "47945", "name": "UNISAT 7", "tle1": "1 47945U 21022P   26163.28743572  .00015399  00000-0  38268-3 0  9999", "tle2": "2 47945  97.3901  68.1614 0011226  92.8770 267.3762 15.40338786289109", "object_type": "PAYLOAD", "criticality_score": 9.0, "last_updated": "2026-06-13T11:16:06.819600+00:00", "maneuver_count": 0, "owner": "IT"}, "206": {"norad_id": "47937", "name": "OBJECT F", "tle1": "1 47937U 21022F   26163.87687977  .00008877  00000-0  28049-3 0  9990", "tle2": "2 47937  97.3906  64.5779 0011701 105.4367 254.8169 15.32982102289052", "object_type": "PAYLOAD", "criticality_score": 9.0, "last_updated": "2026-06-13T11:16:06.819600+00:00", "maneuver_count": 0, "owner": "TBD"}, "207": {"norad_id": "47953", "name": "OBJECT X", "tle1": "1 47953U 21022X   26163.16963429  .00105381  00000-0  74789-3 0  9999", "tle2": "2 47953  97.3914  79.8816 0007516  89.1239 271.0886 15.73569238289711", "object_type": "PAYLOAD", "criticality_score": 9.0, "last_updated": "2026-06-13T11:16:06.819600+00:00", "maneuver_count": 0, "owner": "TBD"}, "211": {"norad_id": "48274", "name": "CSS (TIANHE-1)", "tle1": "1 48274U 21035A   26163.81770925  .00021976  00000-0  26094-3 0  9992", "tle2": "2 48274  41.4694 348.5894 0007968  41.6006 318.5438 15.60618766292486", "object_type": "PAYLOAD", "criticality_score": 9.0, "last_updated": "2026-06-13T11:16:06.819600+00:00", "maneuver_count": 0, "owner": "PRC"}, "238": {"norad_id": "46810", "name": "TIANQI-6", "tle1": "1 46810U 20076D   26163.16995854  .00003725  00000-0  24434-3 0  9996", "tle2": "2 46810  34.9990  79.2547 0009372 128.8326 231.3221 15.07150656307820", "object_type": "PAYLOAD", "criticality_score": 9.0, "last_updated": "2026-06-13T11:16:06.819600+00:00", "maneuver_count": 0, "owner": "PRC"}, "250": {"norad_id": "48606", "name": "TYVAK-0130", "tle1": "1 48606U 21041BF  26163.85792397  .00006620  00000-0  25507-3 0  9996", "tle2": "2 48606  52.9974  46.1909 0010587 148.7681 211.3947 15.27513407279726", "object_type": "PAYLOAD", "criticality_score": 9.0, "last_updated": "2026-06-13T11:16:06.819600+00:00", "maneuver_count": 0, "owner": "US"}, "251": {"norad_id": "48271", "name": "TYVAK-182A", "tle1": "1 48271U 21034D   26163.14821784  .00004007  00000-0  27813-3 0  9990", "tle2": "2 48271  97.5733 222.1531 0005530   6.6631 353.4669 15.06123800279076", "object_type": "PAYLOAD", "criticality_score": 9.0, "last_updated": "2026-06-13T11:16:06.819600+00:00", "maneuver_count": 0, "owner": "IT"}, "277": {"norad_id": "48270", "name": "AII-BRAVO", "tle1": "1 48270U 21034C   26163.09626199  .00004125  00000-0  30733-3 0  9992", "tle2": "2 48270  97.5630 218.1215 0004571 282.8412  77.2302 15.03441317278857", "object_type": "PAYLOAD", "criticality_score": 9.0, "last_updated": "2026-06-13T11:16:06.819600+00:00", "maneuver_count": 0, "owner": "LTU"}, "300": {"norad_id": "47883", "name": "STARLINK-2342", "tle1": "1 47883U 21021Z   26163.83335647  .00171273  00000-0  89591-3 0  9999", "tle2": "2 47883  53.1542 169.8849 0001539  86.6000  31.8832 15.79829925  5822", "object_type": "PAYLOAD", "criticality_score": 9.0, "last_updated": "2026-06-13T11:16:06.819600+00:00", "maneuver_count": 0, "owner": "US"}, "335": {"norad_id": "46912", "name": "KSM1-A", "tle1": "1 46912U 20081H   26163.77900882  .00009835  00000-0  37799-3 0  9995", "tle2": "2 46912  36.8956  88.5155 0004760 280.7078  79.3135 15.25894213308506", "object_type": "PAYLOAD", "criticality_score": 9.0, "last_updated": "2026-06-13T11:16:06.819600+00:00", "maneuver_count": 0, "owner": "LUXE"}, "336": {"norad_id": "46914", "name": "KSM1-B", "tle1": "1 46914U 20081K   26163.25277602  .00007041  00000-0  28384-3 0  9994", "tle2": "2 46914  36.9006  98.9100 0006802 246.6185 113.3848 15.24440557311432", "object_type": "PAYLOAD", "criticality_score": 9.0, "last_updated": "2026-06-13T11:16:06.819600+00:00", "maneuver_count": 0, "owner": "LUXE"}, "337": {"norad_id": "46906", "name": "KSM1-C", "tle1": "1 46906U 20081B   26163.77805119  .00010346  00000-0  38830-3 0  9991", "tle2": "2 46906  36.8944  86.1595 0002471 225.1176 134.9373 15.26670289308493", "object_type": "PAYLOAD", "criticality_score": 9.0, "last_updated": "2026-06-13T11:16:06.819600+00:00", "maneuver_count": 0, "owner": "LUXE"}, "346": {"norad_id": "46907", "name": "KSM1-D", "tle1": "1 46907U 20081C   26163.77390764  .00008625  00000-0  34454-3 0  9992", "tle2": "2 46907  36.8947  95.1099 0004835 237.6970 122.3310 15.24660909308423", "object_type": "PAYLOAD", "criticality_score": 9.0, "last_updated": "2026-06-13T11:16:06.819600+00:00", "maneuver_count": 0, "owner": "LUXE"}, "364": {"norad_id": "47719", "name": "ARKTIKA-M 1", "tle1": "1 47719U 21016A   26160.51571443 -.00000149  00000-0  00000+0 0  9997", "tle2": "2 47719  63.2417  58.7595 7285674 269.8905  14.6803  2.00625436 38630", "object_type": "PAYLOAD", "criticality_score": 9.0, "last_updated": "2026-06-13T11:16:06.819600+00:00", "maneuver_count": 0, "owner": "CIS"}, "416": {"norad_id": "46497", "name": "ICEYE-X6", "tle1": "1 46497U 20068M   26163.86833323  .00003722  00000-0  27050-3 0  9991", "tle2": "2 46497  98.0964 157.3328 0008505 102.8535 257.3640 15.04497687312586", "object_type": "PAYLOAD", "criticality_score": 9.0, "last_updated": "2026-06-13T11:16:06.819600+00:00", "maneuver_count": 0, "owner": "FIN"}, "438": {"norad_id": "48621", "name": "HAIYANG 2D", "tle1": "1 48621U 21043A   26163.81020363 -.00000132  00000-0 -45650-4 0  9994", "tle2": "2 48621  65.9993 315.5971 0011401 269.5621  90.4141 13.83375408255949", "object_type": "PAYLOAD", "criticality_score": 9.0, "last_updated": "2026-06-13T11:16:06.819600+00:00", "maneuver_count": 0, "owner": "PRC"}, "446": {"norad_id": "46913", "name": "R2", "tle1": "1 46913U 20081J   26163.07879019  .00007328  00000-0  28707-3 0  9990", "tle2": "2 46913  36.8976  92.7830 0008962 246.2489 113.7320 15.25361113311205", "object_type": "PAYLOAD", "criticality_score": 9.0, "last_updated": "2026-06-13T11:16:06.819600+00:00", "maneuver_count": 0, "owner": "LTU"}, "448": {"norad_id": "47971", "name": "GLOBAL-9", "tle1": "1 47971U 21023G   26163.79658756  .00021076  00000-0  42196-3 0  9998", "tle2": "2 47971  44.9817 275.2030 0005043 296.0447  63.9924 15.46443914294263", "object_type": "PAYLOAD", "criticality_score": 9.0, "last_updated": "2026-06-13T11:16:06.819600+00:00", "maneuver_count": 0, "owner": "US"}, "540": {"norad_id": "47934", "name": "GRUS-1B", "tle1": "1 47934U 21022C   26163.83775918  .00001522  00000-0  13041-3 0  9992", "tle2": "2 47934  97.5421  47.1796 0015704 344.1346  15.9384 14.98894039285249", "object_type": "PAYLOAD", "criticality_score": 9.0, "last_updated": "2026-06-13T11:16:06.819600+00:00", "maneuver_count": 0, "owner": "JPN"}, "568": {"norad_id": "48843", "name": "OBJECT D", "tle1": "1 48843U 21050D   26163.86880931  .00005832  00000-0  24880-3 0  9999", "tle2": "2 48843  97.3343 240.0028 0003981 285.0682  75.0114 15.23289127278304", "object_type": "PAYLOAD", "criticality_score": 9.0, "last_updated": "2026-06-13T11:16:06.819600+00:00", "maneuver_count": 0, "owner": "PRC"}, "617": {"norad_id": "47227", "name": "GONETS M 20", "tle1": "1 47227U 20091A   26163.82020630  .00000074  00000-0  46001-3 0  9998", "tle2": "2 47227  82.5037 305.1512 0021010 187.3732 172.7042 12.42893808250534", "object_type": "PAYLOAD", "criticality_score": 9.0, "last_updated": "2026-06-13T11:16:06.819600+00:00", "maneuver_count": 0, "owner": "CIS"}, "618": {"norad_id": "47228", "name": "GONETS M 21", "tle1": "1 47228U 20091B   26163.87454456  .00000027  00000-0  12253-3 0  9991", "tle2": "2 47228  82.4962 303.8270 0014548 200.3531 159.6971 12.42886764250536", "object_type": "PAYLOAD", "criticality_score": 9.0, "last_updated": "2026-06-13T11:16:06.819600+00:00", "maneuver_count": 0, "owner": "CIS"}, "619": {"norad_id": "47229", "name": "GONETS M 22", "tle1": "1 47229U 20091C   26163.84766150 -.00000007  00000-0 -12031-3 0  9990", "tle2": "2 47229  82.5019 304.7404 0021942 182.6859 177.4106 12.42892670250486", "object_type": "PAYLOAD", "criticality_score": 9.0, "last_updated": "2026-06-13T11:16:06.819600+00:00", "maneuver_count": 0, "owner": "CIS"}}}